{
"type": "FeatureCollection",
"name": "aips_gisco_gulf",
"crs": { "type": "name", "properties": { "name": "urn:ogc:def:crs:OGC:1.3:CRS84" } },
"features": [
{ "type": "Feature", "properties": { "ADMIN": "Italy", "ADM0_A3": "IT" }, "geometry": { "type": "MultiPolygon", "coordinates": [ [ [ [ 13.607418346000031, 45.89873194900008 ], [ 13.595525130000055, 45.893934863000027 ], [ 13.586661, 45.880712132000042 ], [ 13.592119506000074, 45.87483063500008 ], [ 13.576201703000038, 45.853469999000026 ], [ 13.575945432000026, 45.843768011000066 ], [ 13.587976688000026, 45.835234655000079 ], [ 13.597137159000056, 45.819470729000045 ], [ 13.596242761000042, 45.807937328000037 ], [ 13.625601347000043, 45.797567284000081 ], [ 13.62995111400005, 45.798619379000058 ], [ 13.635636986000065, 45.799994643000048 ], [ 13.66670434100007, 45.799309004000065 ], [ 13.672818704000065, 45.794551220000073 ], [ 13.675796741000056, 45.792233913000075 ], [ 13.676769258000036, 45.792375819000029 ], [ 13.681030083000053, 45.79299754300007 ], [ 13.708288689000028, 45.775019417000067 ], [ 13.721295612000063, 45.769315617000075 ], [ 13.745343753000043, 45.755867237000075 ], [ 13.759087492000049, 45.755858205000038 ], [ 13.761192086000051, 45.755856822000055 ], [ 13.762862553000048, 45.75443425900005 ], [ 13.767383366000047, 45.750584353000079 ], [ 13.779293512000038, 45.748236532000078 ], [ 13.789371318000065, 45.746249917000057 ], [ 13.799406823000027, 45.740204701000039 ], [ 13.802797763000058, 45.735141417000079 ], [ 13.810254018000023, 45.724007884000059 ], [ 13.825221163000037, 45.713529891000064 ], [ 13.832572889000062, 45.708383196000057 ], [ 13.835142746000031, 45.699130357000058 ], [ 13.834363318000044, 45.69643188200007 ], [ 13.832470016000059, 45.689877040000056 ], [ 13.854681682000034, 45.670093647000044 ], [ 13.87408128800007, 45.65502456400003 ], [ 13.890672204000055, 45.647115358000065 ], [ 13.89832621000005, 45.64346654700006 ], [ 13.898685555000043, 45.643424794000055 ], [ 13.915995267000028, 45.635032710000075 ], [ 13.917666802000042, 45.631599359000063 ], [ 13.890672204000055, 45.617736308000076 ], [ 13.87946204800005, 45.611979342000041 ], [ 13.869098217000044, 45.609214976000032 ], [ 13.865859257000068, 45.597775863000038 ], [ 13.854355896000072, 45.592245942000034 ], [ 13.849824151000064, 45.585014435000062 ], [ 13.821810463000077, 45.581685431000039 ], [ 13.782482634000075, 45.583891563000066 ], [ 13.747980003000066, 45.597333107000054 ], [ 13.735415188000047, 45.596160976000078 ], [ 13.723158649000027, 45.594806770000048 ], [ 13.720977580000067, 45.604601946000059 ], [ 13.733725557000071, 45.609727135000071 ], [ 13.763354739000022, 45.606476514000065 ], [ 13.77636676700007, 45.601895498000033 ], [ 13.784028152000076, 45.599198231000059 ], [ 13.804405283000051, 45.609378394000032 ], [ 13.789679230000047, 45.613733047000039 ], [ 13.780381168000076, 45.616482585000028 ], [ 13.774394180000058, 45.623641451000026 ], [ 13.774723302000041, 45.625098993000051 ], [ 13.776131500000076, 45.631335300000046 ], [ 13.773410076000062, 45.634444193000036 ], [ 13.768469596000045, 45.635289313000044 ], [ 13.765340379000065, 45.632229663000032 ], [ 13.763646874000074, 45.630573807000076 ], [ 13.759406030000036, 45.630543767000063 ], [ 13.760296064000045, 45.634455100000025 ], [ 13.752733008000064, 45.637346459000071 ], [ 13.749819539000043, 45.64413182800007 ], [ 13.757491609000056, 45.646795273000066 ], [ 13.760488071000054, 45.647835529000076 ], [ 13.767211628000041, 45.654518027000051 ], [ 13.746091044000025, 45.686171994000063 ], [ 13.732203587000072, 45.696383258000026 ], [ 13.731095649000054, 45.696767005000027 ], [ 13.720030674000043, 45.70059948100004 ], [ 13.713783090000049, 45.702763401000027 ], [ 13.709549335000077, 45.711736321000046 ], [ 13.675796741000056, 45.736165967000034 ], [ 13.673666238000067, 45.737707995000051 ], [ 13.668336040000042, 45.74156591600007 ], [ 13.667733623000061, 45.741937311000072 ], [ 13.641593416000035, 45.758052951000082 ], [ 13.635196538000059, 45.765132751000067 ], [ 13.630711692000034, 45.770096393000074 ], [ 13.613555630000064, 45.771028339000054 ], [ 13.604353678000052, 45.771528204000049 ], [ 13.593303092000042, 45.774928376000048 ], [ 13.579783203000034, 45.786951554000041 ], [ 13.578818025000032, 45.777112073000069 ], [ 13.575982658000044, 45.776158269000064 ], [ 13.566536289000055, 45.777981019000038 ], [ 13.562582937000059, 45.778743850000069 ], [ 13.55717487000004, 45.783554999000046 ], [ 13.549214115000041, 45.790637082000046 ], [ 13.541461230000039, 45.791365828000039 ], [ 13.534449874000074, 45.786881336000079 ], [ 13.536345170000061, 45.780253275000064 ], [ 13.527940809000029, 45.77182566700003 ], [ 13.521222131000059, 45.762005663000025 ], [ 13.521626178000076, 45.751788346000069 ], [ 13.524581647000048, 45.74817261000004 ], [ 13.519191843000044, 45.747108836000052 ], [ 13.518511677000049, 45.743636921000075 ], [ 13.526023587000054, 45.737443026000051 ], [ 13.528901308000059, 45.736538160000066 ], [ 13.553193431000068, 45.728899783000031 ], [ 13.550806882000074, 45.726813237000044 ], [ 13.546886474000075, 45.723765683000067 ], [ 13.530870914000047, 45.722408709000035 ], [ 13.527349946000072, 45.722110383000029 ], [ 13.48638969600006, 45.705316382000035 ], [ 13.46968890900007, 45.706134232000068 ], [ 13.458136430000025, 45.693038830000035 ], [ 13.453715852000073, 45.690513422000038 ], [ 13.430265754000061, 45.677116745000035 ], [ 13.403293190000056, 45.676084029000037 ], [ 13.387426059000063, 45.675476514000081 ], [ 13.381126860000052, 45.677923348000036 ], [ 13.376082384000028, 45.679882803000055 ], [ 13.380283303000056, 45.682885105000025 ], [ 13.390049059000035, 45.681819879000045 ], [ 13.399976329000026, 45.68073703500005 ], [ 13.402736833000063, 45.681676172000039 ], [ 13.411247293000031, 45.684571473000062 ], [ 13.418905075000055, 45.691863122000029 ], [ 13.429635737000069, 45.689810136000062 ], [ 13.439020700000071, 45.688014609000049 ], [ 13.444102608000037, 45.691390727000055 ], [ 13.445707945000038, 45.698809849000043 ], [ 13.458884449000038, 45.708049634000076 ], [ 13.447650647000046, 45.718229594000036 ], [ 13.431161018000068, 45.716346934000057 ], [ 13.428092721000041, 45.715996619000066 ], [ 13.406680157000039, 45.725244069000041 ], [ 13.389592077000032, 45.72431173800004 ], [ 13.365791533000049, 45.732726436000064 ], [ 13.353668619000075, 45.735111963000065 ], [ 13.31963660200006, 45.743780027000071 ], [ 13.313979666000023, 45.748505642000055 ], [ 13.274373027000024, 45.748077248000072 ], [ 13.270710592000057, 45.753055907000032 ], [ 13.25481394600007, 45.750299690000077 ], [ 13.239361336000059, 45.753057526000077 ], [ 13.237588287000051, 45.755236564000029 ], [ 13.227868781000041, 45.757125962000032 ], [ 13.226925923000067, 45.759423108000078 ], [ 13.221848462000025, 45.771793659000025 ], [ 13.215398361000041, 45.771852836000051 ], [ 13.206746702000032, 45.767346417000056 ], [ 13.204800078000062, 45.766332472000045 ], [ 13.199536650000027, 45.769505798000068 ], [ 13.193330985000046, 45.773247199000025 ], [ 13.184230011000068, 45.773241241000051 ], [ 13.181679372000076, 45.765127884000037 ], [ 13.180507821000049, 45.763692626000079 ], [ 13.179341453000063, 45.762263718000042 ], [ 13.176079239000046, 45.76233972600005 ], [ 13.167792174000056, 45.762532811000028 ], [ 13.165458903000058, 45.75921717500006 ], [ 13.165356060000022, 45.75906387100008 ], [ 13.161750227000027, 45.753688828000065 ], [ 13.15428141600006, 45.75500248600008 ], [ 13.145273829000075, 45.751331194000045 ], [ 13.138902608000024, 45.755623204000074 ], [ 13.139631507000047, 45.757370989000037 ], [ 13.14040144300003, 45.75921717500006 ], [ 13.133485553000071, 45.765348233000054 ], [ 13.130852834000052, 45.771844479000038 ], [ 13.123535035000032, 45.76311508200007 ], [ 13.112376042000051, 45.757727509000063 ], [ 13.114591197000038, 45.753940288000081 ], [ 13.115442988000041, 45.752483992000066 ], [ 13.107237928000075, 45.743959853000035 ], [ 13.105818890000023, 45.73720035000008 ], [ 13.099321411000062, 45.735751163000032 ], [ 13.092360473000042, 45.734198607000053 ], [ 13.087790865000045, 45.722016162000045 ], [ 13.086745495000059, 45.719229234000068 ], [ 13.085022070000036, 45.718718017000072 ], [ 13.080068320000066, 45.717248593000079 ], [ 13.080599703000075, 45.713450164000051 ], [ 13.080826654000077, 45.711827876000029 ], [ 13.079478786000038, 45.712114946000042 ], [ 13.070583975000034, 45.714009367000074 ], [ 13.069502091000061, 45.712612407000051 ], [ 13.068458067000051, 45.71049918600005 ], [ 13.077026645000046, 45.69670496100008 ], [ 13.076452801000073, 45.691024494000033 ], [ 13.098103537000043, 45.68938860600008 ], [ 13.111585028000036, 45.686161424000034 ], [ 13.119192328000054, 45.688227540000071 ], [ 13.133517681000058, 45.692118255000025 ], [ 13.145292175000066, 45.698927703000038 ], [ 13.152192184000057, 45.698841905000052 ], [ 13.152496151000037, 45.694350025000062 ], [ 13.147328457000071, 45.68871663300007 ], [ 13.122484094000072, 45.673054830000069 ], [ 13.117786761000048, 45.670093647000044 ], [ 13.109409197000048, 45.662471259000029 ], [ 13.098785273000033, 45.644532900000058 ], [ 13.098994447000052, 45.638344533000065 ], [ 13.095099339000058, 45.635712316000081 ], [ 13.078872677000049, 45.634269907000032 ], [ 13.02, 45.629036639700104 ], [ 13.02, 45.9 ], [ 13.608423474813058, 45.9 ], [ 13.607418346000031, 45.89873194900008 ] ] ], [ [ [ 13.281810896000025, 45.708108042000049 ], [ 13.268154208000055, 45.713419687000055 ], [ 13.279611541000065, 45.718422972000042 ], [ 13.294101148000038, 45.719721268000058 ], [ 13.306743576000031, 45.72085405200005 ], [ 13.311523138000041, 45.721282310000049 ], [ 13.320132234000027, 45.716723340000044 ], [ 13.324000932000047, 45.708146828000054 ], [ 13.305966542000021, 45.708130249000078 ], [ 13.288308943000061, 45.708114016000081 ], [ 13.281810896000025, 45.708108042000049 ] ] ], [ [ [ 13.168497150000064, 45.702442707000046 ], [ 13.163932306000049, 45.702911 ], [ 13.152526794000039, 45.704081055000074 ], [ 13.15686977200005, 45.709470920000058 ], [ 13.163401782000051, 45.71106848900007 ], [ 13.167208170000038, 45.711999438000078 ], [ 13.179638148000038, 45.709217934000037 ], [ 13.179750314000046, 45.709192834000078 ], [ 13.179741122000053, 45.709169558000042 ], [ 13.178819146000023, 45.706834859000026 ], [ 13.178442652000058, 45.705881471000055 ], [ 13.176857316000053, 45.705333324000037 ], [ 13.168497150000064, 45.702442707000046 ] ] ], [ [ [ 13.25022154800007, 45.717593835000059 ], [ 13.241953650000028, 45.713036825000074 ], [ 13.236185848000048, 45.713026741000078 ], [ 13.206473229000039, 45.712974792000068 ], [ 13.233278979000033, 45.718375238000078 ], [ 13.242467392000037, 45.72022639100004 ], [ 13.25022154800007, 45.717593835000059 ] ] ], [ [ [ 13.25022154800007, 45.717593835000059 ], [ 13.250323033000029, 45.720452862000059 ], [ 13.250333541000032, 45.72074888800006 ], [ 13.252535189000071, 45.721642202000055 ], [ 13.253355707000026, 45.718613386000072 ], [ 13.253967179000028, 45.716356231000077 ], [ 13.254013278000059, 45.716186064000055 ], [ 13.252752228000077, 45.714458665000052 ], [ 13.25132614100005, 45.714793826000061 ], [ 13.250147218000052, 45.715070898000079 ], [ 13.25022154800007, 45.717593835000059 ] ] ], [ [ [ 13.542304708000074, 45.786877408000066 ], [ 13.54643623000004, 45.786217577000059 ], [ 13.542503811000074, 45.78224147800006 ], [ 13.537856059000035, 45.783347488000061 ], [ 13.542304708000074, 45.786877408000066 ] ] ], [ [ [ 13.340357539000024, 45.693888626000046 ], [ 13.343515118000028, 45.689806972000042 ], [ 13.339772380000056, 45.689149806000046 ], [ 13.335403352000071, 45.693068166000046 ], [ 13.340357539000024, 45.693888626000046 ] ] ], [ [ [ 13.377969222000047, 45.725583650000033 ], [ 13.381150922000074, 45.723447055000065 ], [ 13.377962120000063, 45.720163285000069 ], [ 13.373705445000041, 45.722223747000044 ], [ 13.377969222000047, 45.725583650000033 ] ] ], [ [ [ 13.297003213000039, 45.730825425000035 ], [ 13.298875667000061, 45.727394530000026 ], [ 13.295382185000051, 45.725553175000073 ], [ 13.292029387000071, 45.730018308000069 ], [ 13.297003213000039, 45.730825425000035 ] ] ], [ [ [ 13.42396672600006, 45.705661638000038 ], [ 13.426263132000031, 45.701695783000048 ], [ 13.42245549200004, 45.700376021000068 ], [ 13.419171078000034, 45.703590016000078 ], [ 13.42396672600006, 45.705661638000038 ] ] ] ] } },
{ "type": "Feature", "properties": { "ADMIN": "Croatia", "ADM0_A3": "HR" }, "geometry": { "type": "Polygon", "coordinates": [ [ [ 13.540086131000066, 45.351317338000058 ], [ 13.542508320000024, 45.352161121000051 ], [ 13.55597507400006, 45.356852342000025 ], [ 13.541936762000034, 45.36231553500005 ], [ 13.541459011000029, 45.368330118000074 ], [ 13.545440395000071, 45.372263654000051 ], [ 13.538917774000026, 45.37555057600008 ], [ 13.543891901000052, 45.379000928000039 ], [ 13.533372979000035, 45.385956888000067 ], [ 13.538136941000062, 45.391089352000051 ], [ 13.533699777000038, 45.396165182000061 ], [ 13.53566328900007, 45.401305357000069 ], [ 13.528070253000067, 45.40463744300007 ], [ 13.526035992000061, 45.406521035000026 ], [ 13.51615438500005, 45.41567075200004 ], [ 13.516998661000059, 45.420278646000042 ], [ 13.520936990000052, 45.423348123000039 ], [ 13.522684369000046, 45.424710005000065 ], [ 13.519352097000024, 45.428578386000027 ], [ 13.518719561000069, 45.429312688000039 ], [ 13.518994961000033, 45.429756963000045 ], [ 13.52350722500006, 45.437036135000028 ], [ 13.515916101000073, 45.439917431000026 ], [ 13.510424581000052, 45.442001799000082 ], [ 13.514174413000035, 45.44566513400008 ], [ 13.515086112000063, 45.446555803000081 ], [ 13.513481871000067, 45.451107608000029 ], [ 13.516475656000068, 45.453868168000042 ], [ 13.509177178000073, 45.466887830000076 ], [ 13.509936548000042, 45.472627660000057 ], [ 13.504743091000023, 45.476789201000031 ], [ 13.490526193000051, 45.488181266000026 ], [ 13.498002601000053, 45.49279296900005 ], [ 13.498038740000027, 45.497002767000026 ], [ 13.504512896000051, 45.503378533000046 ], [ 13.509354400000063, 45.504805284000042 ], [ 13.555537880000031, 45.490611916000034 ], [ 13.566536289000055, 45.485012448000077 ], [ 13.571080885000072, 45.482698721000077 ], [ 13.576253677000068, 45.480065168000067 ], [ 13.58505629800004, 45.478721964000044 ], [ 13.585649207000074, 45.478531949000057 ], [ 13.603013545000067, 45.467011101000026 ], [ 13.643878790000031, 45.458844286000044 ], [ 13.670264803000066, 45.445517943000027 ], [ 13.675796741000056, 45.444323394000037 ], [ 13.679399901000068, 45.443545340000071 ], [ 13.690920377000054, 45.44936030100007 ], [ 13.703821333000064, 45.455872060000047 ], [ 13.710164401000043, 45.453010072000041 ], [ 13.720030674000043, 45.456611851000048 ], [ 13.726944110000034, 45.459135668000044 ], [ 13.756330254000034, 45.461651529000051 ], [ 13.765663071000063, 45.466302622000057 ], [ 13.783852153000055, 45.466381279000075 ], [ 13.80601211000004, 45.457256396000048 ], [ 13.805098426000029, 45.453427429000044 ], [ 13.80286419600003, 45.444064461000039 ], [ 13.81296840300007, 45.440974812000036 ], [ 13.814942659000053, 45.434326080000062 ], [ 13.82915317800007, 45.43371567500003 ], [ 13.848254954000026, 45.432895168000073 ], [ 13.850511048000044, 45.430923869000026 ], [ 13.855694060000076, 45.426395128000081 ], [ 13.887097294000057, 45.425873152000065 ], [ 13.889824573000055, 45.431953368000052 ], [ 13.890672204000055, 45.433843084000046 ], [ 13.891800900000021, 45.436359407000054 ], [ 13.91386946800003, 45.453016791000039 ], [ 13.953120393000063, 45.455912385000033 ], [ 13.958203541000046, 45.453509702000076 ], [ 13.967183408000039, 45.449265134000029 ], [ 13.970718078000061, 45.447594380000055 ], [ 13.985105807000025, 45.456665113000042 ], [ 13.985734217000072, 45.464530229000047 ], [ 13.986035863000041, 45.46830559600005 ], [ 13.988266187000022, 45.469349962000081 ], [ 13.995664552000051, 45.472814301000028 ], [ 13.992134413000031, 45.47671332300007 ], [ 13.987652522000076, 45.481663550000064 ], [ 13.987723406000043, 45.481793175000064 ], [ 13.989315688000033, 45.484704953000062 ], [ 13.985340032000067, 45.488423557000033 ], [ 13.978903372000048, 45.491284008000036 ], [ 13.967183408000039, 45.496492359000058 ], [ 13.965694404000033, 45.497504019000075 ], [ 13.963154603000078, 45.505813239000076 ], [ 13.967183408000039, 45.508886217000054 ], [ 13.975665625000033, 45.514714170000047 ], [ 13.98166410500005, 45.512311394000051 ], [ 13.988576777000048, 45.509542425000063 ], [ 14.000462286000072, 45.50846389600008 ], [ 13.998939612000072, 45.512787238000044 ], [ 13.998049382000033, 45.515314875000058 ], [ 14.001949577000062, 45.520062666000058 ], [ 14.013010218000034, 45.518690629000048 ], [ 14.02, 45.514001810540961 ], [ 14.02, 45.35 ], [ 13.540453635253971, 45.35 ], [ 13.540086131000066, 45.351317338000058 ] ] ] } },
{ "type": "Feature", "properties": { "ADMIN": "Slovenia", "ADM0_A3": "SI" }, "geometry": { "type": "Polygon", "coordinates": [ [ [ 14.013010218000034, 45.518690629000048 ], [ 14.001949577000062, 45.520062666000058 ], [ 13.998049382000033, 45.515314875000058 ], [ 13.998939612000072, 45.512787238000044 ], [ 14.000462286000072, 45.50846389600008 ], [ 13.988576777000048, 45.509542425000063 ], [ 13.98166410500005, 45.512311394000051 ], [ 13.975665625000033, 45.514714170000047 ], [ 13.967183408000039, 45.508886217000054 ], [ 13.963154603000078, 45.505813239000076 ], [ 13.965694404000033, 45.497504019000075 ], [ 13.967183408000039, 45.496492359000058 ], [ 13.978903372000048, 45.491284008000036 ], [ 13.985340032000067, 45.488423557000033 ], [ 13.989315688000033, 45.484704953000062 ], [ 13.987723406000043, 45.481793175000064 ], [ 13.987652522000076, 45.481663550000064 ], [ 13.992134413000031, 45.47671332300007 ], [ 13.995664552000051, 45.472814301000028 ], [ 13.988266187000022, 45.469349962000081 ], [ 13.986035863000041, 45.46830559600005 ], [ 13.985734217000072, 45.464530229000047 ], [ 13.985105807000025, 45.456665113000042 ], [ 13.970718078000061, 45.447594380000055 ], [ 13.967183408000039, 45.449265134000029 ], [ 13.958203541000046, 45.453509702000076 ], [ 13.953120393000063, 45.455912385000033 ], [ 13.91386946800003, 45.453016791000039 ], [ 13.891800900000021, 45.436359407000054 ], [ 13.890672204000055, 45.433843084000046 ], [ 13.889824573000055, 45.431953368000052 ], [ 13.887097294000057, 45.425873152000065 ], [ 13.855694060000076, 45.426395128000081 ], [ 13.850511048000044, 45.430923869000026 ], [ 13.848254954000026, 45.432895168000073 ], [ 13.82915317800007, 45.43371567500003 ], [ 13.814942659000053, 45.434326080000062 ], [ 13.81296840300007, 45.440974812000036 ], [ 13.80286419600003, 45.444064461000039 ], [ 13.805098426000029, 45.453427429000044 ], [ 13.80601211000004, 45.457256396000048 ], [ 13.783852153000055, 45.466381279000075 ], [ 13.765663071000063, 45.466302622000057 ], [ 13.756330254000034, 45.461651529000051 ], [ 13.726944110000034, 45.459135668000044 ], [ 13.720030674000043, 45.456611851000048 ], [ 13.710164401000043, 45.453010072000041 ], [ 13.703821333000064, 45.455872060000047 ], [ 13.690920377000054, 45.44936030100007 ], [ 13.679399901000068, 45.443545340000071 ], [ 13.675796741000056, 45.444323394000037 ], [ 13.670264803000066, 45.445517943000027 ], [ 13.643878790000031, 45.458844286000044 ], [ 13.603013545000067, 45.467011101000026 ], [ 13.585649207000074, 45.478531949000057 ], [ 13.592120430000023, 45.483836991000032 ], [ 13.591560586000071, 45.490111218000038 ], [ 13.587690064000071, 45.49545032900005 ], [ 13.585549410000056, 45.498403211000038 ], [ 13.588309890000062, 45.500588586000049 ], [ 13.593788139000026, 45.504925523000054 ], [ 13.593772495000053, 45.510900641000035 ], [ 13.585200044000032, 45.512610623000057 ], [ 13.570580520000021, 45.515526839000074 ], [ 13.566893335000032, 45.521257127000069 ], [ 13.56733768600003, 45.529213082000069 ], [ 13.580681365000032, 45.525765208000053 ], [ 13.583494200000075, 45.525799755000037 ], [ 13.599940629000059, 45.526001747000066 ], [ 13.60669649600004, 45.529363214000057 ], [ 13.601645920000067, 45.532836035000059 ], [ 13.601858628000059, 45.533760864000044 ], [ 13.602436236000074, 45.536272229000076 ], [ 13.615719434000027, 45.539769621000062 ], [ 13.629646232000027, 45.533716576000074 ], [ 13.643664665000074, 45.532398127000079 ], [ 13.656257880000055, 45.535227579000036 ], [ 13.657716386000061, 45.541656332000059 ], [ 13.668599073000053, 45.539302569000029 ], [ 13.675796741000056, 45.543033052000055 ], [ 13.681136710000033, 45.545800708000058 ], [ 13.69340507000004, 45.547912551000081 ], [ 13.719039115000044, 45.543772333000049 ], [ 13.732170737000047, 45.551188815000046 ], [ 13.732512242000041, 45.553269040000032 ], [ 13.733033162000027, 45.556442136000044 ], [ 13.741046156000039, 45.558054123000034 ], [ 13.736145523000062, 45.562021552000033 ], [ 13.739633339000022, 45.564023466000037 ], [ 13.743266826000024, 45.566108992000068 ], [ 13.742576641000028, 45.570357338000065 ], [ 13.728011374000062, 45.578598770000042 ], [ 13.720030674000043, 45.583114471000044 ], [ 13.709466114000065, 45.589092192000066 ], [ 13.720030674000043, 45.59350465700004 ], [ 13.722850280000046, 45.594682312000032 ], [ 13.723158649000027, 45.594806770000048 ], [ 13.735415188000047, 45.596160976000078 ], [ 13.747980003000066, 45.597333107000054 ], [ 13.782482634000075, 45.583891563000066 ], [ 13.821810463000077, 45.581685431000039 ], [ 13.849824151000064, 45.585014435000062 ], [ 13.854355896000072, 45.592245942000034 ], [ 13.865859257000068, 45.597775863000038 ], [ 13.869098217000044, 45.609214976000032 ], [ 13.87946204800005, 45.611979342000041 ], [ 13.890672204000055, 45.617736308000076 ], [ 13.917666802000042, 45.631599359000063 ], [ 13.915995267000028, 45.635032710000075 ], [ 13.898685555000043, 45.643424794000055 ], [ 13.89832621000005, 45.64346654700006 ], [ 13.890672204000055, 45.647115358000065 ], [ 13.87408128800007, 45.65502456400003 ], [ 13.854681682000034, 45.670093647000044 ], [ 13.832470016000059, 45.689877040000056 ], [ 13.834363318000044, 45.69643188200007 ], [ 13.835142746000031, 45.699130357000058 ], [ 13.832572889000062, 45.708383196000057 ], [ 13.825221163000037, 45.713529891000064 ], [ 13.810254018000023, 45.724007884000059 ], [ 13.802797763000058, 45.735141417000079 ], [ 13.799406823000027, 45.740204701000039 ], [ 13.789371318000065, 45.746249917000057 ], [ 13.779293512000038, 45.748236532000078 ], [ 13.767383366000047, 45.750584353000079 ], [ 13.762862553000048, 45.75443425900005 ], [ 13.761192086000051, 45.755856822000055 ], [ 13.759087492000049, 45.755858205000038 ], [ 13.745343753000043, 45.755867237000075 ], [ 13.721295612000063, 45.769315617000075 ], [ 13.708288689000028, 45.775019417000067 ], [ 13.681030083000053, 45.79299754300007 ], [ 13.676769258000036, 45.792375819000029 ], [ 13.675796741000056, 45.792233913000075 ], [ 13.672818704000065, 45.794551220000073 ], [ 13.66670434100007, 45.799309004000065 ], [ 13.635636986000065, 45.799994643000048 ], [ 13.62995111400005, 45.798619379000058 ], [ 13.625601347000043, 45.797567284000081 ], [ 13.596242761000042, 45.807937328000037 ], [ 13.597137159000056, 45.819470729000045 ], [ 13.587976688000026, 45.835234655000079 ], [ 13.575945432000026, 45.843768011000066 ], [ 13.576201703000038, 45.853469999000026 ], [ 13.592119506000074, 45.87483063500008 ], [ 13.586661, 45.880712132000042 ], [ 13.595525130000055, 45.893934863000027 ], [ 13.607418346000031, 45.89873194900008 ], [ 13.608423474813058, 45.9 ], [ 14.02, 45.9 ], [ 14.02, 45.514001810540961 ], [ 14.013010218000034, 45.518690629000048 ] ] ] } }
]
}
