{
"type": "FeatureCollection",
"name": "marine_regions_slovenian_waters",
"crs": { "type": "name", "properties": { "name": "urn:ogc:def:crs:OGC:1.3:CRS84" } },
"features": [
{ "type": "Feature", "properties": { "mrgid": 5692, "geoname": "Slovenian Exclusive Economic Zone", "territory1": "Slovenia" }, "geometry": { "type": "Polygon", "coordinates": [ [ [ 13.72266304, 45.59269631 ], [ 13.72178174, 45.59241748 ], [ 13.72164507, 45.59237424 ], [ 13.71825051, 45.59130025 ], [ 13.71715474, 45.59129322 ], [ 13.71229804, 45.59374273 ], [ 13.7109375, 45.59375 ], [ 13.70784545, 45.59372365 ], [ 13.70513415, 45.59271574 ], [ 13.70432711, 45.59218204 ], [ 13.70346832, 45.59046781 ], [ 13.70418835, 45.58894706 ], [ 13.7109375, 45.58565843 ], [ 13.7109375, 45.58482134 ], [ 13.72394323, 45.58172286 ], [ 13.72581422, 45.57965457 ], [ 13.72902763, 45.57972395 ], [ 13.73422122, 45.57421434 ], [ 13.74157143, 45.57325494 ], [ 13.74218488, 45.56978214 ], [ 13.74101245, 45.56820977 ], [ 13.74591517, 45.56815624 ], [ 13.74614513, 45.56477666 ], [ 13.73687565, 45.56424022 ], [ 13.73312676, 45.55973411 ], [ 13.74668455, 45.55876851 ], [ 13.73894823, 45.55732012 ], [ 13.73358655, 45.55758834 ], [ 13.73121202, 45.55651546 ], [ 13.73205447, 45.55345774 ], [ 13.73695672, 45.55367231 ], [ 13.73795235, 45.55238485 ], [ 13.73389292, 45.55072176 ], [ 13.72623324, 45.55077553 ], [ 13.72293937, 45.54943442 ], [ 13.72194374, 45.54879057 ], [ 13.72362876, 45.54905891 ], [ 13.7245481, 45.5468595 ], [ 13.71933937, 45.54310441 ], [ 13.7147845, 45.54411995 ], [ 13.7109375, 45.54659593 ], [ 13.6988548, 45.5481981 ], [ 13.69142318, 45.54811454 ], [ 13.67900574, 45.54572237 ], [ 13.67847717, 45.54555976 ], [ 13.67563915, 45.54244423 ], [ 13.66847885, 45.53913403 ], [ 13.66775668, 45.53903663 ], [ 13.66588914, 45.54061425 ], [ 13.66624784, 45.54310751 ], [ 13.65806031, 45.54202127 ], [ 13.65702176, 45.54177964 ], [ 13.6563282, 45.54154432 ], [ 13.65363896, 45.53732872 ], [ 13.64426243, 45.53212714 ], [ 13.63897634, 45.53341246 ], [ 13.62942517, 45.53379095 ], [ 13.62232006, 45.53630125 ], [ 13.61791325, 45.53957784 ], [ 13.61433935, 45.54041147 ], [ 13.61324966, 45.54006505 ], [ 13.61193037, 45.53828335 ], [ 13.60220146, 45.53734481 ], [ 13.60109806, 45.53133106 ], [ 13.602355, 45.53044355 ], [ 13.6029582, 45.5317167 ], [ 13.6039443, 45.53173471 ], [ 13.60620463, 45.53091288 ], [ 13.60618484, 45.53045332 ], [ 13.60224366, 45.52734375 ], [ 13.60209215, 45.52734375 ], [ 13.60035324, 45.52568543 ], [ 13.59786546, 45.52650285 ], [ 13.58079064, 45.52573204 ], [ 13.57627106, 45.52734375 ], [ 13.57556796, 45.52734375 ], [ 13.57097018, 45.52981424 ], [ 13.56442821, 45.53062475 ], [ 13.56334221, 45.53031814 ], [ 13.56273603, 45.52949774 ], [ 13.56720686, 45.52734375 ], [ 13.56753182, 45.52734375 ], [ 13.56644237, 45.52141738 ], [ 13.56878006, 45.51603794 ], [ 13.56910706, 45.51568186 ], [ 13.57298505, 45.5133301 ], [ 13.57716703, 45.515558 ], [ 13.58206546, 45.51276648 ], [ 13.59157407, 45.51283705 ], [ 13.59228456, 45.51220596 ], [ 13.59428775, 45.50473237 ], [ 13.59410465, 45.50423348 ], [ 13.59332991, 45.50354254 ], [ 13.58721936, 45.50196111 ], [ 13.58692586, 45.50175416 ], [ 13.58713293, 45.49989784 ], [ 13.58753145, 45.49955964 ], [ 13.59007871, 45.4983654 ], [ 13.59156525, 45.49980915 ], [ 13.59552681, 45.49676943 ], [ 13.60284495, 45.49543726 ], [ 13.609411, 45.49056494 ], [ 13.61851227, 45.48740816 ], [ 13.61873066, 45.48718643 ], [ 13.62105918, 45.48270273 ], [ 13.61820078, 45.47901201 ], [ 13.61629927, 45.4782356 ], [ 13.60977948, 45.47929096 ], [ 13.61012387, 45.47609484 ], [ 13.61383486, 45.47287655 ], [ 13.61570466, 45.46743882 ], [ 13.61450613, 45.46548963 ], [ 13.60730922, 45.4654839 ], [ 13.6065402, 45.46557307 ], [ 13.60150285, 45.46837444 ], [ 13.6013776, 45.46844409 ], [ 13.60074266, 45.46879719 ], [ 13.52380556, 45.51158333 ], [ 13.49755396, 45.52183977 ], [ 13.45213889, 45.53958333 ], [ 13.38700668, 45.56494667 ], [ 13.47053584, 45.58730881 ], [ 13.48515421, 45.59122239 ], [ 13.5046661, 45.59644604 ], [ 13.51304284, 45.59868863 ], [ 13.56046022, 45.61138305 ], [ 13.63, 45.63 ], [ 13.6682558, 45.61531596 ], [ 13.67241062, 45.61372118 ], [ 13.68290746, 45.60969209 ], [ 13.68498857, 45.60889328 ], [ 13.69405291, 45.60541403 ], [ 13.6958283, 45.60473257 ], [ 13.69698124, 45.60429003 ], [ 13.7125, 45.59833333 ], [ 13.71586663, 45.59622919 ], [ 13.71914824, 45.59417819 ], [ 13.71926731, 45.59417686 ], [ 13.72261012, 45.59451532 ], [ 13.72266304, 45.59269631 ] ] ] } }
]
}
