{
"type": "FeatureCollection",
"name": "marine_regions_croatian_waters",
"crs": { "type": "name", "properties": { "name": "urn:ogc:def:crs:OGC:1.3:CRS84" } },
"features": [
{ "type": "Feature", "properties": { "mrgid": 5673, "geoname": "Croatian Exclusive Economic Zone" }, "geometry": { "type": "Polygon", "coordinates": [ [ [ 13.18527778, 45.42861111 ], [ 13.21111111, 45.45361111 ], [ 13.21166667, 45.45333333 ], [ 13.3125, 45.545 ], [ 13.38700668, 45.56494667 ], [ 13.45213889, 45.53958333 ], [ 13.52380556, 45.51158333 ], [ 13.6065402, 45.46557307 ], [ 13.60102725, 45.46758676 ], [ 13.59373784, 45.47228515 ], [ 13.58892667, 45.47319531 ], [ 13.57838285, 45.48016906 ], [ 13.56079614, 45.48753047 ], [ 13.55603182, 45.49075401 ], [ 13.53214169, 45.49904681 ], [ 13.52839875, 45.50034606 ], [ 13.51804137, 45.50227225 ], [ 13.51091075, 45.50550222 ], [ 13.50345337, 45.50359178 ], [ 13.50228751, 45.50083983 ], [ 13.50396025, 45.49933791 ], [ 13.49880624, 45.49917758 ], [ 13.49705577, 45.49769378 ], [ 13.49817216, 45.49170721 ], [ 13.49265504, 45.49143577 ], [ 13.49004436, 45.4896239 ], [ 13.48993754, 45.48620462 ], [ 13.49843836, 45.47898734 ], [ 13.50438726, 45.47519684 ], [ 13.51014948, 45.47346318 ], [ 13.50859785, 45.46524525 ], [ 13.51265073, 45.46408761 ], [ 13.51303363, 45.46269143 ], [ 13.51136541, 45.46158552 ], [ 13.51107073, 45.45921385 ], [ 13.50801778, 45.45832682 ], [ 13.51245534, 45.45782411 ], [ 13.51722515, 45.45328164 ], [ 13.51194096, 45.45212984 ], [ 13.51193416, 45.44992232 ], [ 13.51546502, 45.44862676 ], [ 13.51508546, 45.44645452 ], [ 13.50964475, 45.44328415 ], [ 13.50796986, 45.44100082 ], [ 13.51165175, 45.44018376 ], [ 13.51296115, 45.43787396 ], [ 13.51753736, 45.43767893 ], [ 13.52122092, 45.43940341 ], [ 13.52386212, 45.43764234 ], [ 13.52089465, 45.43372154 ], [ 13.51554108, 45.43422556 ], [ 13.51943207, 45.43211973 ], [ 13.51857674, 45.42733467 ], [ 13.52402437, 45.42475355 ], [ 13.51923764, 45.42192435 ], [ 13.51582146, 45.42305231 ], [ 13.51697946, 45.42115772 ], [ 13.51535594, 45.41641903 ], [ 13.51644671, 45.41416562 ], [ 13.52258551, 45.41045785 ], [ 13.52435863, 45.40713251 ], [ 13.52804852, 45.40592003 ], [ 13.52955306, 45.40299857 ], [ 13.53606796, 45.40132105 ], [ 13.53101897, 45.39563727 ], [ 13.53917277, 45.39081395 ], [ 13.53459871, 45.3896116 ], [ 13.53236806, 45.38608336 ], [ 13.53751016, 45.38124883 ], [ 13.54458427, 45.37817514 ], [ 13.53554511, 45.37534738 ], [ 13.53695714, 45.37409127 ], [ 13.54438436, 45.37221551 ], [ 13.54096091, 45.36899996 ], [ 13.54189181, 45.36038291 ], [ 13.55144155, 45.36049855 ], [ 13.55497217, 45.35857916 ], [ 13.55477405, 45.35722673 ], [ 13.55096436, 45.35463095 ], [ 13.54986846, 45.35421693 ], [ 13.54369974, 45.35246134 ], [ 13.53880894, 45.35283744 ], [ 13.53797412, 45.35252905 ], [ 13.53792763, 45.3515625 ], [ 13.538462282630828, 45.35 ], [ 13.112281743871176, 45.35 ], [ 13.18527778, 45.42861111 ] ] ] } }
]
}
